[Satellite]
VERSION=1.1
NAME=MOLNIYA 1-32
NICKNAME=MOLNIYA 1-32
TLE1=1 08601U 76006A   20157.09813417 -.00001658  00000-0 -61995-4 0  9998
TLE2=2 08601  62.6751  51.9299 7409768 278.9690  11.2241  2.00040611324151
STATUS=0
